STARLINK-36636          
1 67611U 26018Y   26042.58335648  .00153180  00000+0  78798-3 0  9993
2 67611  97.2755 107.0956 0001278 101.8634  52.3458 15.80774448  3151
STARLINK-36407          
1 67612U 26018Z   26042.58335648  .00113502  00000+0  58614-3 0  9993
2 67612  97.2779 107.0983 0001462  95.5587  63.8591 15.80796274  3256
STARLINK-36597          
1 67613U 26018AA  26042.58335648  .00118394  00000+0  61123-3 0  9997
2 67613  97.2771 107.0998 0001508  82.7565  82.4952 15.80788911  3156
NEONSAT-1A              
1 67614U 26019A   26041.89993027  .00003729  00000+0  24868-3 0  9993
2 67614  97.4083 166.4431 0012052 265.6434  94.3417 15.07590975  1784
ELECTRON KICK STAGE R/B 
1 67616U 26019C   26042.29832564  .00395748  45199-4  19695-2 0  9997
2 67616  97.4044 167.7384 0185555 218.1266 140.6745 15.60956481  1909
STARLINK-36548          
1 67617U 26020A   26042.58335648  .00056668  00000+0  34948-3 0  9994
2 67617  42.9990 300.9457 0001925 251.7705 142.1555 15.76312080  3193
STARLINK-36601          
1 67618U 26020B   26042.58335648  .00027174  00000+0  13146-3 0  9992
2 67618  42.9987 300.8560 0001982 257.6032 172.3773 15.81968767  3197
STARLINK-36119          
1 67619U 26020C   26042.58335648  .00340765  00000+0  19996-2 0  9995
2 67619  42.9992 300.9156 0002473 270.5972 135.7510 15.76512201  3193
STARLINK-36607          
1 67620U 26020D   26042.58335648 -.00001355  00000+0 -39070-5 0  9996
2 67620  42.9984 300.8305 0001995 267.7781 172.3192 15.81977121  3190
STARLINK-36615          
1 67621U 26020E   26042.58335648  .00045008  00000+0  21551-3 0  9991
2 67621  42.9989 300.8404 0001868 277.1207 159.2267 15.81981123  3197
STARLINK-36614          
1 67622U 26020F   26042.58335648 -.00007094  00000+0 -40669-4 0  9999
2 67622  42.9992 300.8526 0002549 247.5519 183.6606 15.76323390  3199
STARLINK-36600          
1 67623U 26020G   26042.58335648  .00035783  00000+0  22220-3 0  9996
2 67623  42.9992 300.8832 0001734 255.0194 163.7678 15.76325434  3197
