CCSDS_OMM_VERS = 2.0
CREATION_DATE  = 
ORIGINATOR     = 

OBJECT_NAME    = STARLINK-36636
OBJECT_ID      = 2026-018Y
CENTER_NAME    = EARTH
REF_FRAME      = TEME
TIME_SYSTEM    = UTC
MEAN_ELEMENT_THEORY = SGP/SGP4

EPOCH          = 2026-02-11T14:00:01.999872
MEAN_MOTION    = 15.80774448
ECCENTRICITY   = .00012788
INCLINATION    = 97.2755
RA_OF_ASC_NODE = 107.0956
ARG_OF_PERICENTER = 101.8634
MEAN_ANOMALY   = 52.3458

EPHEMERIS_TYPE = 0
CLASSIFICATION_TYPE = U
NORAD_CAT_ID   = 67611
ELEMENT_SET_NO = 999
REV_AT_EPOCH   = 315
BSTAR          = .78797838E-3
MEAN_MOTION_DOT = .15318E-2
MEAN_MOTION_DDOT = 0

CCSDS_OMM_VERS = 2.0
CREATION_DATE  = 
ORIGINATOR     = 

OBJECT_NAME    = STARLINK-36407
OBJECT_ID      = 2026-018Z
CENTER_NAME    = EARTH
REF_FRAME      = TEME
TIME_SYSTEM    = UTC
MEAN_ELEMENT_THEORY = SGP/SGP4

EPOCH          = 2026-02-11T14:00:01.999872
MEAN_MOTION    = 15.80796274
ECCENTRICITY   = .0001462
INCLINATION    = 97.2779
RA_OF_ASC_NODE = 107.0983
ARG_OF_PERICENTER = 95.5587
MEAN_ANOMALY   = 63.8591

EPHEMERIS_TYPE = 0
CLASSIFICATION_TYPE = U
NORAD_CAT_ID   = 67612
ELEMENT_SET_NO = 999
REV_AT_EPOCH   = 325
BSTAR          = .58614451E-3
MEAN_MOTION_DOT = .113502E-2
MEAN_MOTION_DDOT = 0

CCSDS_OMM_VERS = 2.0
CREATION_DATE  = 
ORIGINATOR     = 

OBJECT_NAME    = STARLINK-36597
OBJECT_ID      = 2026-018AA
CENTER_NAME    = EARTH
REF_FRAME      = TEME
TIME_SYSTEM    = UTC
MEAN_ELEMENT_THEORY = SGP/SGP4

EPOCH          = 2026-02-11T14:00:01.999872
MEAN_MOTION    = 15.80788911
ECCENTRICITY   = .00015081
INCLINATION    = 97.2771
RA_OF_ASC_NODE = 107.0998
ARG_OF_PERICENTER = 82.7565
MEAN_ANOMALY   = 82.4952

EPHEMERIS_TYPE = 0
CLASSIFICATION_TYPE = U
NORAD_CAT_ID   = 67613
ELEMENT_SET_NO = 999
REV_AT_EPOCH   = 315
BSTAR          = .61123258E-3
MEAN_MOTION_DOT = .118394E-2
MEAN_MOTION_DDOT = 0

CCSDS_OMM_VERS = 2.0
CREATION_DATE  = 
ORIGINATOR     = 

OBJECT_NAME    = NEONSAT-1A
OBJECT_ID      = 2026-019A
CENTER_NAME    = EARTH
REF_FRAME      = TEME
TIME_SYSTEM    = UTC
MEAN_ELEMENT_THEORY = SGP/SGP4

EPOCH          = 2026-02-10T21:35:53.975328
MEAN_MOTION    = 15.07590975
ECCENTRICITY   = .0012052
INCLINATION    = 97.4083
RA_OF_ASC_NODE = 166.4431
ARG_OF_PERICENTER = 265.6434
MEAN_ANOMALY   = 94.3417

EPHEMERIS_TYPE = 0
CLASSIFICATION_TYPE = U
NORAD_CAT_ID   = 67614
ELEMENT_SET_NO = 999
REV_AT_EPOCH   = 178
BSTAR          = .24868481E-3
MEAN_MOTION_DOT = .3729E-4
MEAN_MOTION_DDOT = 0

CCSDS_OMM_VERS = 2.0
CREATION_DATE  = 
ORIGINATOR     = 

OBJECT_NAME    = ELECTRON KICK STAGE R/B
OBJECT_ID      = 2026-019C
CENTER_NAME    = EARTH
REF_FRAME      = TEME
TIME_SYSTEM    = UTC
MEAN_ELEMENT_THEORY = SGP/SGP4

EPOCH          = 2026-02-11T07:09:35.335296
MEAN_MOTION    = 15.60956481
ECCENTRICITY   = .0185555
INCLINATION    = 97.4044
RA_OF_ASC_NODE = 167.7384
ARG_OF_PERICENTER = 218.1266
MEAN_ANOMALY   = 140.6745

EPHEMERIS_TYPE = 0
CLASSIFICATION_TYPE = U
NORAD_CAT_ID   = 67616
ELEMENT_SET_NO = 999
REV_AT_EPOCH   = 190
BSTAR          = .19694699E-2
MEAN_MOTION_DOT = .395748E-2
MEAN_MOTION_DDOT = .45198859E-4

CCSDS_OMM_VERS = 2.0
CREATION_DATE  = 
ORIGINATOR     = 

OBJECT_NAME    = STARLINK-36548
OBJECT_ID      = 2026-020A
CENTER_NAME    = EARTH
REF_FRAME      = TEME
TIME_SYSTEM    = UTC
MEAN_ELEMENT_THEORY = SGP/SGP4

EPOCH          = 2026-02-11T14:00:01.999872
MEAN_MOTION    = 15.76312080
ECCENTRICITY   = .00019255
INCLINATION    = 42.9990
RA_OF_ASC_NODE = 300.9457
ARG_OF_PERICENTER = 251.7705
MEAN_ANOMALY   = 142.1555

EPHEMERIS_TYPE = 0
CLASSIFICATION_TYPE = U
NORAD_CAT_ID   = 67617
ELEMENT_SET_NO = 999
REV_AT_EPOCH   = 319
BSTAR          = .34948407E-3
MEAN_MOTION_DOT = .56668E-3
MEAN_MOTION_DDOT = 0

CCSDS_OMM_VERS = 2.0
CREATION_DATE  = 
ORIGINATOR     = 

OBJECT_NAME    = STARLINK-36601
OBJECT_ID      = 2026-020B
CENTER_NAME    = EARTH
REF_FRAME      = TEME
TIME_SYSTEM    = UTC
MEAN_ELEMENT_THEORY = SGP/SGP4

EPOCH          = 2026-02-11T14:00:01.999872
MEAN_MOTION    = 15.81968767
ECCENTRICITY   = .00019822
INCLINATION    = 42.9987
RA_OF_ASC_NODE = 300.8560
ARG_OF_PERICENTER = 257.6032
MEAN_ANOMALY   = 172.3773

EPHEMERIS_TYPE = 0
CLASSIFICATION_TYPE = U
NORAD_CAT_ID   = 67618
ELEMENT_SET_NO = 999
REV_AT_EPOCH   = 319
BSTAR          = .13146133E-3
MEAN_MOTION_DOT = .27174E-3
MEAN_MOTION_DDOT = 0

CCSDS_OMM_VERS = 2.0
CREATION_DATE  = 
ORIGINATOR     = 

OBJECT_NAME    = STARLINK-36119
OBJECT_ID      = 2026-020C
CENTER_NAME    = EARTH
REF_FRAME      = TEME
TIME_SYSTEM    = UTC
MEAN_ELEMENT_THEORY = SGP/SGP4

EPOCH          = 2026-02-11T14:00:01.999872
MEAN_MOTION    = 15.76512201
ECCENTRICITY   = .00024736
INCLINATION    = 42.9992
RA_OF_ASC_NODE = 300.9156
ARG_OF_PERICENTER = 270.5972
MEAN_ANOMALY   = 135.7510

EPHEMERIS_TYPE = 0
CLASSIFICATION_TYPE = U
NORAD_CAT_ID   = 67619
ELEMENT_SET_NO = 999
REV_AT_EPOCH   = 319
BSTAR          = .19996362E-2
MEAN_MOTION_DOT = .340765E-2
MEAN_MOTION_DDOT = 0

CCSDS_OMM_VERS = 2.0
CREATION_DATE  = 
ORIGINATOR     = 

OBJECT_NAME    = STARLINK-36607
OBJECT_ID      = 2026-020D
CENTER_NAME    = EARTH
REF_FRAME      = TEME
TIME_SYSTEM    = UTC
MEAN_ELEMENT_THEORY = SGP/SGP4

EPOCH          = 2026-02-11T14:00:01.999872
MEAN_MOTION    = 15.81977121
ECCENTRICITY   = .00019953
INCLINATION    = 42.9984
RA_OF_ASC_NODE = 300.8305
ARG_OF_PERICENTER = 267.7781
MEAN_ANOMALY   = 172.3192

EPHEMERIS_TYPE = 0
CLASSIFICATION_TYPE = U
NORAD_CAT_ID   = 67620
ELEMENT_SET_NO = 999
REV_AT_EPOCH   = 319
BSTAR          = -.3906982E-5
MEAN_MOTION_DOT = -.1355E-4
MEAN_MOTION_DDOT = 0

CCSDS_OMM_VERS = 2.0
CREATION_DATE  = 
ORIGINATOR     = 

OBJECT_NAME    = STARLINK-36615
OBJECT_ID      = 2026-020E
CENTER_NAME    = EARTH
REF_FRAME      = TEME
TIME_SYSTEM    = UTC
MEAN_ELEMENT_THEORY = SGP/SGP4

EPOCH          = 2026-02-11T14:00:01.999872
MEAN_MOTION    = 15.81981123
ECCENTRICITY   = .00018687
INCLINATION    = 42.9989
RA_OF_ASC_NODE = 300.8404
ARG_OF_PERICENTER = 277.1207
MEAN_ANOMALY   = 159.2267

EPHEMERIS_TYPE = 0
CLASSIFICATION_TYPE = U
NORAD_CAT_ID   = 67621
ELEMENT_SET_NO = 999
REV_AT_EPOCH   = 319
BSTAR          = .21550717E-3
MEAN_MOTION_DOT = .45008E-3
MEAN_MOTION_DDOT = 0

CCSDS_OMM_VERS = 2.0
CREATION_DATE  = 
ORIGINATOR     = 

OBJECT_NAME    = STARLINK-36614
OBJECT_ID      = 2026-020F
CENTER_NAME    = EARTH
REF_FRAME      = TEME
TIME_SYSTEM    = UTC
MEAN_ELEMENT_THEORY = SGP/SGP4

EPOCH          = 2026-02-11T14:00:01.999872
MEAN_MOTION    = 15.76323390
ECCENTRICITY   = .00025499
INCLINATION    = 42.9992
RA_OF_ASC_NODE = 300.8526
ARG_OF_PERICENTER = 247.5519
MEAN_ANOMALY   = 183.6606

EPHEMERIS_TYPE = 0
CLASSIFICATION_TYPE = U
NORAD_CAT_ID   = 67622
ELEMENT_SET_NO = 999
REV_AT_EPOCH   = 319
BSTAR          = -.40668579E-4
MEAN_MOTION_DOT = -.7094E-4
MEAN_MOTION_DDOT = 0

CCSDS_OMM_VERS = 2.0
CREATION_DATE  = 
ORIGINATOR     = 

OBJECT_NAME    = STARLINK-36600
OBJECT_ID      = 2026-020G
CENTER_NAME    = EARTH
REF_FRAME      = TEME
TIME_SYSTEM    = UTC
MEAN_ELEMENT_THEORY = SGP/SGP4

EPOCH          = 2026-02-11T14:00:01.999872
MEAN_MOTION    = 15.76325434
ECCENTRICITY   = .00017349
INCLINATION    = 42.9992
RA_OF_ASC_NODE = 300.8832
ARG_OF_PERICENTER = 255.0194
MEAN_ANOMALY   = 163.7678

EPHEMERIS_TYPE = 0
CLASSIFICATION_TYPE = U
NORAD_CAT_ID   = 67623
ELEMENT_SET_NO = 999
REV_AT_EPOCH   = 319
BSTAR          = .22219697E-3
MEAN_MOTION_DOT = .35783E-3
MEAN_MOTION_DDOT = 0

